[{"OBJECT_NAME":"STARLINK-35023","OBJECT_ID":"2025-184G","EPOCH":"2026-03-09T17:12:56.350368","MEAN_MOTION":15.05647042,"ECCENTRICITY":0.00010549,"INCLINATION":97.6019,"RA_OF_ASC_NODE":122.6676,"ARG_OF_PERICENTER":93.352,"MEAN_ANOMALY":266.7828,"EPHEMERIS_TYPE":0,"CLASSIFICATION_TYPE":"U","NORAD_CAT_ID":65279,"ELEMENT_SET_NO":999,"REV_AT_EPOCH":3130,"BSTAR":0.00019345439,"MEAN_MOTION_DOT":2.731e-5,"MEAN_MOTION_DDOT":0},{"OBJECT_NAME":"SL-16 DEB","OBJECT_ID":"1992-093JY","EPOCH":"2026-03-07T13:13:58.279008","MEAN_MOTION":15.07529046,"ECCENTRICITY":0.0041412,"INCLINATION":71.2754,"RA_OF_ASC_NODE":129.6393,"ARG_OF_PERICENTER":153.6297,"MEAN_ANOMALY":274.6618,"EPHEMERIS_TYPE":0,"CLASSIFICATION_TYPE":"U","NORAD_CAT_ID":39708,"ELEMENT_SET_NO":999,"REV_AT_EPOCH":64104,"BSTAR":0.0012088,"MEAN_MOTION_DOT":0.00018716,"MEAN_MOTION_DDOT":0}]
